OBJECT_NAME,OBJECT_ID,EPOCH,MEAN_MOTION,ECCENTRICITY,INCLINATION,RA_OF_ASC_NODE,ARG_OF_PERICENTER,MEAN_ANOMALY,EPHEMERIS_TYPE,CLASSIFICATION_TYPE,NORAD_CAT_ID,ELEMENT_SET_NO,REV_AT_EPOCH,BSTAR,MEAN_MOTION_DOT,MEAN_MOTION_DDOT
PERSEUS-M1,2014-033AF,2026-05-17T09:26:51.823104,14.95520624,.00127604,97.9634,81.0260,45.6950,314.5314,0,U,40039,999,64603,.13739677E-3,.1464E-4,0
POLYITAN-1,2014-033AJ,2026-05-18T00:29:25.960704,15.32137260,.0005638,98.0958,161.4533,243.4651,116.6011,0,U,40042,999,64897,.40156E-3,.12383E-3,0
TIGRISAT,2014-033AK,2026-05-18T03:11:23.648640,14.85021474,.0049709,97.7797,288.8430,171.6860,188.5190,0,U,40043,999,64116,.16909E-3,.1419E-4,0
AEROCUBE 6A,2014-033AM,2026-05-17T16:42:22.798944,14.97747275,.00402172,97.7222,304.9826,116.5408,243.9945,0,U,40045,999,64205,.33348842E-3,.3917E-4,0
AEROCUBE 6B,2014-033AN,2026-05-17T22:16:27.954048,14.99169761,.00384466,97.7174,304.9395,109.1682,251.3708,0,U,40046,999,64222,.3778389E-3,.4609E-4,0
CANX-4,2014-034C,2026-05-18T03:48:42.586272,14.81203490,.0014075,98.3160,12.3648,105.9354,254.3410,0,U,40055,999,64008,.79831E-4,.565E-5,0
CANX-5,2014-034D,2026-05-18T02:09:40.600800,14.81220629,.0014071,98.3163,12.3353,106.3261,253.9499,0,U,40056,999,63088,.82172E-4,.583E-5,0
UKUBE-1,2014-037F,2026-05-18T05:09:25.375392,15.13024960,.0000347,98.4239,138.3519,131.3462,228.7797,0,U,40074,999,64402,.31072E-3,.5412E-4,0
BRITE-PL2 (HEWELIUSZ),2014-049B,2026-05-18T02:39:43.627968,14.94468090,.0013562,97.9064,249.8874,204.1268,155.9318,0,U,40119,999,63695,.12742E-3,.1317E-4,0
AEROCUBE 5C,2015-058B,2026-05-17T23:53:09.720096,14.91269665,.0129906,64.7683,356.5040,75.1385,286.4073,0,U,40965,999,36115,.20229E-3,.2193E-4,0
AEROCUBE 7,2015-058C,2026-05-18T00:14:52.351296,14.95476078,.0119678,64.7626,339.3194,73.8114,287.6132,0,U,40966,999,36144,.26732E-3,.3244E-4,0
FOX-1A (AO-85),2015-058D,2026-05-18T02:24:05.075136,14.90778967,.0129183,64.7765,12.4727,68.3958,293.0860,0,U,40967,999,10908,.21248E-3,.2278E-4,0
SINOD-D 1,2015-058E,2026-05-17T07:45:27.281088,14.95649294,.01176591,64.7761,355.5486,65.4694,295.8632,0,U,40968,999,11204,.25586287E-3,.3096E-4,0
SNAP-3 ALICE,2015-058G,2026-05-18T04:08:49.520832,15.53956204,.0033282,64.7519,207.1530,27.3476,332.9410,0,U,40970,999,11221,.71615E-3,.47679E-3,0
LMRST-SAT,2015-058H,2026-05-18T01:08:46.947840,14.90404442,.0130943,64.7771,8.9165,70.4412,291.0784,0,U,40971,999,10906,.21734E-3,.232E-4,0
SNAP-3 EDDIE,2015-058J,2026-05-17T14:34:04.622016,15.55063424,.0033549,64.7439,200.0345,31.5257,328.7887,0,U,40972,999,11426,.65234E-3,.45225E-3,0
PROPCUBE 3,2015-058K,2026-05-18T00:33:17.852256,14.94037791,.0123068,64.7689,346.7648,71.9360,289.5115,0,U,40973,999,11029,.23543E-3,.2744E-4,0
BISONSAT,2015-058L,2026-05-18T01:57:03.519072,15.15543787,.007865,64.7602,270.9242,60.0394,300.8509,0,U,40974,999,11105,.39394E-3,.7911E-4,0
SNAP-3 JIMI,2015-058M,2026-05-17T18:20:11.131008,15.01968488,.01050719,64.7650,316.0051,67.9972,293.2269,0,U,40975,999,10965,.29608723E-3,.4193E-4,0
PROPCUBE 1 (FLORA),2015-058N,2026-05-18T02:37:23.093184,14.89036393,.0129745,64.7761,28.4429,72.6996,288.8262,0,U,40976,999,11178,.20931E-3,.2137E-4,0
SINOD-D 3,2015-058P,2026-05-17T21:58:40.818144,14.93767413,.01182058,64.7736,10.3307,70.2310,291.1505,0,U,40977,999,11023,.26296253E-3,.3028E-4,0
HORYU-4,2016-012D,2026-05-17T19:10:00.507072,15.79340876,.00048019,30.9884,299.0907,67.1367,292.9797,0,U,41340,999,56598,.7290076E-3,.139695E-2,0
RAVAN,2016-067B,2026-05-17T22:56:48.026688,15.51726163,.00072164,97.9935,24.1066,107.1629,253.0412,0,U,41849,999,52300,.5223446E-3,.3112E-3,0
CELTEE 1,2016-067C,2026-05-18T01:07:44.306112,15.19358878,.0001548,98.0708,2.5604,56.8435,303.2946,0,U,41850,999,52130,.18017E-3,.3731E-4,0
OPTICUBE 04,2016-067D,2026-05-18T01:15:15.941376,15.09520291,.0014792,98.0728,348.7619,215.4630,144.5615,0,U,41851,999,52062,.99095E-4,.1521E-4,0
AEROCUBE 8D,2016-067E,2026-05-18T03:40:22.948896,15.23939656,.0002262,98.0717,6.0447,217.7001,142.4076,0,U,41852,999,52149,.19299E-3,.4584E-4,0
AEROCUBE 8C,2016-067F,2026-05-18T04:23:16.498176,15.24178667,.0005975,98.0589,3.3438,150.3894,209.7680,0,U,41853,999,52149,.20045E-3,.4801E-4,0
CORVUS BC2,2017-042X,2026-05-18T00:48:11.331072,15.06085577,.0012279,97.4039,300.5660,208.2455,151.8108,0,U,42846,999,48252,.12999E-3,.1842E-4,0
CORVUS BC1,2017-042Y,2026-05-17T21:34:02.224704,15.06255859,.00118064,97.4069,301.2307,184.0044,176.1091,0,U,42847,999,48253,.12354378E-3,.1756E-4,0
MAKERSAT 0,2017-073D,2026-05-18T02:58:41.001024,15.30754138,.0110743,97.4667,20.4325,21.0775,339.4976,0,U,43016,999,46186,.48881E-3,.17514E-3,0
