PERSEUS-M1              
1 40039U 14033AF  26137.39365536  .00001464  00000+0  13740-3 0  9998
2 40039  97.9634  81.0260 0012760  45.6950 314.5314 14.95520624646036
POLYITAN-1              
1 40042U 14033AJ  26138.02043936  .00012383  00000+0  40156-3 0  9993
2 40042  98.0958 161.4533 0005638 243.4651 116.6011 15.32137260648971
TIGRISAT                
1 40043U 14033AK  26138.13291260  .00001419  00000+0  16909-3 0  9998
2 40043  97.7797 288.8430 0049709 171.6860 188.5190 14.85021474641166
AEROCUBE 6A             
1 40045U 14033AM  26137.69609721  .00003917  00000+0  33349-3 0  9997
2 40045  97.7222 304.9826 0040217 116.5408 243.9945 14.97747275642051
AEROCUBE 6B             
1 40046U 14033AN  26137.92810132  .00004609  00000+0  37784-3 0  9990
2 40046  97.7174 304.9395 0038446 109.1682 251.3708 14.99169761642221
CANX-4                  
1 40055U 14034C   26138.15882623  .00000565  00000+0  79831-4 0  9998
2 40055  98.3160  12.3648 0014075 105.9354 254.3410 14.81203490640080
CANX-5                  
1 40056U 14034D   26138.09005325  .00000583  00000+0  82172-4 0  9990
2 40056  98.3163  12.3353 0014071 106.3261 253.9499 14.81220629630887
UKUBE-1                 
1 40074U 14037F   26138.21487703  .00005412  00000+0  31072-3 0  9999
2 40074  98.4239 138.3519 0000347 131.3462 228.7797 15.13024960644025
BRITE-PL2 (HEWELIUSZ)   
1 40119U 14049B   26138.11092162  .00001317  00000+0  12742-3 0  9995
2 40119  97.9064 249.8874 0013562 204.1268 155.9318 14.94468090636950
AEROCUBE 5C             
1 40965U 15058B   26137.99525139  .00002193  00000+0  20229-3 0  9997
2 40965  64.7683 356.5040 0129906  75.1385 286.4073 14.91269665361154
AEROCUBE 7              
1 40966U 15058C   26138.01032814  .00003244  00000+0  26732-3 0  9998
2 40966  64.7626 339.3194 0119678  73.8114 287.6132 14.95476078361444
FOX-1A (AO-85)          
1 40967U 15058D   26138.10005874  .00002278  00000+0  21248-3 0  9998
2 40967  64.7765  12.4727 0129183  68.3958 293.0860 14.90778967109083
SINOD-D 1               
1 40968U 15058E   26137.32323242  .00003096  00000+0  25586-3 0  9992
2 40968  64.7761 355.5486 0117659  65.4694 295.8632 14.95649294112045
SNAP-3 ALICE            
1 40970U 15058G   26138.17279538  .00047679  00000+0  71615-3 0  9996
2 40970  64.7519 207.1530 0033282  27.3476 332.9410 15.53956204112218
LMRST-SAT               
1 40971U 15058H   26138.04776560  .00002320  00000+0  21734-3 0  9991
2 40971  64.7771   8.9165 0130943  70.4412 291.0784 14.90404442109061
SNAP-3 EDDIE            
1 40972U 15058J   26137.60699794  .00045225  00000+0  65234-3 0  9990
2 40972  64.7439 200.0345 0033549  31.5257 328.7887 15.55063424114260
PROPCUBE 3              
1 40973U 15058K   26138.02312329  .00002744  00000+0  23543-3 0  9990
2 40973  64.7689 346.7648 0123068  71.9360 289.5115 14.94037791110298
BISONSAT                
1 40974U 15058L   26138.08129073  .00007911  00000+0  39394-3 0  9991
2 40974  64.7602 270.9242 0078650  60.0394 300.8509 15.15543787111054
SNAP-3 JIMI             
1 40975U 15058M   26137.76401772  .00004193  00000+0  29609-3 0  9992
2 40975  64.7650 316.0051 0105071  67.9972 293.2269 15.01968488109659
PROPCUBE 1 (FLORA)      
1 40976U 15058N   26138.10929506  .00002137  00000+0  20931-3 0  9997
2 40976  64.7761  28.4429 0129745  72.6996 288.8262 14.89036393111785
SINOD-D 3               
1 40977U 15058P   26137.91575021  .00003028  00000+0  26296-3 0  9995
2 40977  64.7736  10.3307 0118205  70.2310 291.1505 14.93767413110231
HORYU-4                 
1 41340U 16012D   26137.79861698  .00139695  00000+0  72901-3 0  9999
2 41340  30.9884 299.0907 0004801  67.1367 292.9797 15.79340876565983
RAVAN                   
1 41849U 16067B   26137.95611142  .00031120  00000+0  52234-3 0  9999
2 41849  97.9935  24.1066 0007216 107.1629 253.0412 15.51726163523005
CELTEE 1                
1 41850U 16067C   26138.04704058  .00003731  00000+0  18017-3 0  9999
2 41850  98.0708   2.5604 0001548  56.8435 303.2946 15.19358878521301
OPTICUBE 04             
1 41851U 16067D   26138.05226784  .00001521  00000+0  99095-4 0  9997
2 41851  98.0728 348.7619 0014792 215.4630 144.5615 15.09520291520622
AEROCUBE 8D             
1 41852U 16067E   26138.15304339  .00004584  00000+0  19299-3 0  9991
2 41852  98.0717   6.0447 0002262 217.7001 142.4076 15.23939656521499
AEROCUBE 8C             
1 41853U 16067F   26138.18282984  .00004801  00000+0  20045-3 0  9999
2 41853  98.0589   3.3438 0005975 150.3894 209.7680 15.24178667521499
CORVUS BC2              
1 42846U 17042X   26138.03346448  .00001842  00000+0  12999-3 0  9997
2 42846  97.4039 300.5660 0012279 208.2455 151.8108 15.06085577482524
CORVUS BC1              
1 42847U 17042Y   26137.89863686  .00001756  00000+0  12354-3 0  9998
2 42847  97.4069 301.2307 0011806 184.0044 176.1091 15.06255859482538
MAKERSAT 0              
1 43016U 17073D   26138.12408566  .00017514  00000+0  48881-3 0  9993
2 43016  97.4667  20.4325 0110743  21.0775 339.4976 15.30754138461862
